{"spkid": "50441149", "covariance": {"labels": ["e", "q", "tp", "node", "peri", "i"], "elements": [{"units": null, "value": ".6157889147181731", "title": "eccentricity", "sigma": 5.20078665382917e-07, "name": "e", "label": "e"}, {"title": "perihelion distance", "value": ".9143313766178057", "units": "au", "name": "q", "sigma": 1.23282651747473e-06, "label": "q"}, {"label": "tp", "title": "time of perihelion passage", "value": "2457443.327742379719", "units": "TDB", "sigma": 8.55505542216715e-05, "name": "tp"}, {"sigma": 0.000345068503817541, "name": "om", "units": "deg", "value": "39.66151159783529", "title": "longitude of the ascending node", "label": "node"}, {"units": "deg", "title": "argument of perihelion", "value": "334.4042304547431", "sigma": 0.000428418016806578, "name": "w", "label": "peri"}, {"label": "i", "sigma": 2.6177094206004e-05, "name": "i", "units": "deg", "title": "inclination", "value": "2.938915178235929"}], "data": [["2.704818181864765E-13", "-6.411656865122253E-13", "-4.166253245515693E-11", "3.467712378618596E-11", "-1.399076499450384E-10", "4.20354094343774E-12"], ["-6.411656865122253E-13", "1.51986122218887E-12", "9.871330991261134E-11", "-8.231634159763012E-11", "3.316824522116695E-10", "-9.963344866227798E-12"], ["-4.166253245515693E-11", "9.871330991261134E-11", "7.318897327635156E-9", "-3.722373109421152E-9", "2.123826095911545E-8", "-6.803979758021327E-10"], ["3.467712378618596E-11", "-8.231634159763012E-11", "-3.722373109421152E-9", "1.19072272326876E-7", "-1.298534956030049E-7", "8.494021715371942E-9"], ["-1.399076499450384E-10", "3.316824522116695E-10", "2.123826095911545E-8", "-1.298534956030049E-7", "1.835419971244815E-7", "-1.016132123442022E-8"], ["4.20354094343774E-12", "-9.963344866227798E-12", "-6.803979758021327E-10", "8.494021715371942E-9", "-1.016132123442022E-8", "6.852402610700074E-10"]], "epoch": "2457346.5"}, "elements": [{"label": "e", "units": null, "title": "eccentricity", "value": ".6124968998728413", "sigma": "5.3619E-7", "name": "e"}, {"name": "a", "sigma": "6.2566E-9", "title": "semi-major axis", "value": "2.384890573137342", "units": "au", "label": "a"}, {"label": "q", "name": "q", "sigma": "1.2808E-6", "value": ".9241524905547561", "title": "perihelion distance", "units": "au"}, {"label": "i", "sigma": "2.6392E-5", "name": "i", "title": "inclination; angle with respect to x-y ecliptic plane", "value": "2.925678892476218", "units": "deg"}, {"name": "om", "sigma": ".00034447", "title": "longitude of the ascending node", "value": "39.67733130570789", "units": "deg", "label": "node"}, {"name": "w", "sigma": ".00042956", "value": "334.4888449868111", "title": "argument of perihelion", "units": "deg", "label": "peri"}, {"label": "M", "units": "deg", "value": "285.81494721484", "title": "mean anomaly", "sigma": "3.1861E-5", "name": "ma"}, {"units": "TDB", "title": "time of perihelion passage", "value": "2461477.713911969065", "sigma": ".00012004", "name": "tp", "label": "tp"}, {"label": "period", "title": "sidereal orbital period", "value": "1345.244150433857", "units": "d", "sigma": "5.2938E-6", "name": "per"}, {"units": "deg/d", "title": "mean motion", "value": ".2676094149035294", "name": "n", "sigma": "1.0531E-9", "label": "n"}, {"label": "Q", "name": "ad", "sigma": "1.0089E-8", "title": "aphelion distance", "value": "3.845628655719927", "units": "au"}], "epoch": "2461200.5"}